CRE (WAAS/PRN 138)      
1 28868U 05036A   20045.70535387 -.00000088  00000-0  00000-0 0  9992
2 28868   0.0337 318.3529 0002859  48.2393 284.2050  1.00273909 23255
IOR-W (EGNOS/PRN 126)   
1 28899U 05044A   20046.08586521 -.00000003  00000-0  00000+0 0  9999
2 28899   2.9737  28.9438 0002831 310.1001 260.3114  1.00271219 52298
MTSAT-2 (MSAS/PRN 137)  
1 28937U 06004A   20045.70813187 -.00000256  00000-0  00000-0 0  9999
2 28937   0.0658 261.5607 0002391  42.1748 240.3619  1.00274871 51289
QZS-1 (QZSS/PRN 183)    
1 37158U 10045A   20045.60952319 -.00000211  00000-0  00000+0 0  9994
2 37158  41.5216 145.3513 0761258 270.6330  83.5130  1.00249770 34509
GSAT-8 (GAGAN/PRN 127)  
1 37605U 11022A   20046.09200792  .00000071  00000-0  00000+0 0  9995
2 37605   0.0506 277.8478 0007154   8.2686 306.6456  1.00271973 32032
LUCH 5A (SDCM/PRN 140)  
1 37951U 11074B   20045.76101579 -.00000062  00000-0  00000-0 0  9994
2 37951   2.9873 119.1071 0002620 223.1018 242.8175  1.00272477 29980
SES-5 (EGNOS/PRN 136)   
1 38652U 12036A   20045.72283001  .00000020  00000-0  00000-0 0  9992
2 38652   0.0492 101.6289 0001941 219.4143  88.3230  1.00271144 21295
GSAT-10 (GAGAN/PRN 128) 
1 38779U 12051B   20045.83940008 -.00000178  00000-0  00000+0 0  9992
2 38779   0.0920 270.8262 0000444 143.7980 114.8437  1.00271063 27083
LUCH 5B (SDCM/PRN 125)  
1 38977U 12061A   20045.33938463 -.00000148  00000-0  00000+0 0  9997
2 38977   5.4912  68.4467 0003452 243.1211 298.1284  1.00271054 26967
ASTRA 5B (EGNOS/PRN 123)
1 39617U 14011B   20045.94784269  .00000140  00000-0  00000-0 0  9998
2 39617   0.0471 297.9927 0003631  32.6111 186.4852  1.00271323 21468
LUCH 5V (SDCM/PRN 141)  
1 39727U 14023A   20045.71274885 -.00000282  00000-0  00000-0 0  9994
2 39727   0.7343 316.5810 0002861  45.0957 133.8017  1.00273460539315
GSAT-15 (GAGAN/PRN 139) 
1 41028U 15065A   20045.71438436 -.00000271  00000-0  00000-0 0  9990
2 41028   0.0718 280.3332 0000672 352.9404 221.5359  1.00271288 15626
E 117 W B (WAAS/PRN 131)
1 41589U 16038B   20045.58730094 -.00000025  00000-0  00000+0 0  9999
2 41589   0.0116 259.3831 0000289 285.1614  53.9418  1.00270315 13490
SES-15 (WAAS/PRN 133)   
1 42709U 17026A   20045.42341311  .00000046  00000-0  00000+0 0  9997
2 42709   0.0143  92.7250 0000696 264.5448 169.8783  1.00271469 10970
QZS-2 (QZSS/PRN 184)    
1 42738U 17028A   20041.95316735 -.00000130  00000-0  00000-0 0  9993
2 42738  43.2019 276.1964 0751258 269.9583  78.2373  1.00274854  9897
QZS-3 (QZSS/PRN 189)    
1 42917U 17048A   20045.80674376 -.00000362  00000-0  00000-0 0  9997
2 42917   0.0528 167.0720 0001254 173.7239 220.9229  1.00274764  9058
QZS-4 (QZSS/PRN 185)    
1 42965U 17062A   20045.80118661 -.00000327  00000-0  00000+0 0  9996
2 42965  40.8060  13.2191 0750039 269.2642 288.2466  1.00290598  8602
